{
  "type": "FeatureCollection",
  "features": [
    {
      "type": "Feature",
      "properties": {
        "norad_id": 30996,
        "name": "FENGYUN 1C DEB",
        "group": "fengyun-1c-debris",
        "lat": 30.244062909013095,
        "lon": -113.51768748309046,
        "alt_km": 777.5242473153712,
        "timestamp": "2025-12-12T18:57:44.409569+00:00",
        "meta_object_name": "FENGYUN 1C DEB",
        "meta_object_id": "1999-025BCN",
        "meta_epoch": "2025-12-11T05:03:32.171328",
        "meta_mean_motion": 14.35397133,
        "meta_eccentricity": 0.00502536,
        "meta_inclination": 98.9434,
        "meta_ra_of_asc_node": 250.1141,
        "meta_arg_of_pericenter": 296.3884,
        "meta_mean_anomaly": 217.4243,
        "meta_ephemeris_type": 0,
        "meta_classification_type": "U",
        "meta_norad_cat_id": 30996,
        "meta_element_set_no": 999,
        "meta_rev_at_epoch": 97541,
        "meta_bstar": 0.001511924,
        "meta_mean_motion_dot": 4.357e-05,
        "meta_mean_motion_ddot": 0,
        "tle_line1": "1 30996U 99025BCN 25345.21078902  .00004357  00000+0  15119-2 0  9997",
        "tle_line2": "2 30996  98.9434 250.1141 0050253 296.3884 217.4243 14.35397133975413"
      },
      "geometry": {
        "type": "Point",
        "coordinates": [
          -113.51768748309046,
          30.244062909013095
        ]
      }
    },
    {
      "type": "Feature",
      "properties": {
        "norad_id": 30998,
        "name": "FENGYUN 1C DEB",
        "group": "fengyun-1c-debris",
        "lat": 45.34507975223951,
        "lon": 61.22379877707515,
        "alt_km": 736.1663594337997,
        "timestamp": "2025-12-12T18:57:44.409579+00:00",
        "meta_object_name": "FENGYUN 1C DEB",
        "meta_object_id": "1999-025BCQ",
        "meta_epoch": "2025-12-11T04:53:54.665088",
        "meta_mean_motion": 14.47854327,
        "meta_eccentricity": 0.0012798,
        "meta_inclination": 98.8279,
        "meta_ra_of_asc_node": 68.6185,
        "meta_arg_of_pericenter": 197.4011,
        "meta_mean_anomaly": 226.8043,
        "meta_ephemeris_type": 0,
        "meta_classification_type": "U",
        "meta_norad_cat_id": 30998,
        "meta_element_set_no": 999,
        "meta_rev_at_epoch": 97168,
        "meta_bstar": 0.0039197871,
        "meta_mean_motion_dot": 0.00014509,
        "meta_mean_motion_ddot": 0,
        "tle_line1": "1 30998U 99025BCQ 25345.20410492  .00014509  00000+0  39198-2 0  9995",
        "tle_line2": "2 30998  98.8279  68.6185 0012798 197.4011 226.8043 14.47854327971689"
      },
      "geometry": {
        "type": "Point",
        "coordinates": [
          61.22379877707515,
          45.34507975223951
        ]
      }
    },
    {
      "type": "Feature",
      "properties": {
        "norad_id": 30999,
        "name": "FENGYUN 1C DEB",
        "group": "fengyun-1c-debris",
        "lat": 16.801765838768006,
        "lon": -16.7026207662235,
        "alt_km": 778.5196749902825,
        "timestamp": "2025-12-12T18:57:44.409589+00:00",
        "meta_object_name": "FENGYUN 1C DEB",
        "meta_object_id": "1999-025BCR",
        "meta_epoch": "2025-12-11T22:27:23.654880",
        "meta_mean_motion": 14.58410869,
        "meta_eccentricity": 0.0113068,
        "meta_inclination": 99.0908,
        "meta_ra_of_asc_node": 159.5924,
        "meta_arg_of_pericenter": 340.39,
        "meta_mean_anomaly": 19.2964,
        "meta_ephemeris_type": 0,
        "meta_classification_type": "U",
        "meta_norad_cat_id": 30999,
        "meta_element_set_no": 999,
        "meta_rev_at_epoch": 98819,
        "meta_bstar": 0.00088716,
        "meta_mean_motion_dot": 4.433e-05,
        "meta_mean_motion_ddot": 0,
        "tle_line1": "1 30999U 99025BCR 25345.93569045  .00004433  00000+0  88716-3 0  9991",
        "tle_line2": "2 30999  99.0908 159.5924 0113068 340.3900  19.2964 14.58410869988192"
      },
      "geometry": {
        "type": "Point",
        "coordinates": [
          -16.7026207662235,
          16.801765838768006
        ]
      }
    },
    {
      "type": "Feature",
      "properties": {
        "norad_id": 31000,
        "name": "FENGYUN 1C DEB",
        "group": "fengyun-1c-debris",
        "lat": 23.52231234741622,
        "lon": -161.2519949355534,
        "alt_km": 858.2494323071733,
        "timestamp": "2025-12-12T18:57:44.409599+00:00",
        "meta_object_name": "FENGYUN 1C DEB",
        "meta_object_id": "1999-025BCS",
        "meta_epoch": "2025-12-11T01:29:11.151168",
        "meta_mean_motion": 14.09635849,
        "meta_eccentricity": 0.01654898,
        "meta_inclination": 97.5668,
        "meta_ra_of_asc_node": 13.9766,
        "meta_arg_of_pericenter": 71.124,
        "meta_mean_anomaly": 318.282,
        "meta_ephemeris_type": 0,
        "meta_classification_type": "U",
        "meta_norad_cat_id": 31000,
        "meta_element_set_no": 999,
        "meta_rev_at_epoch": 69933,
        "meta_bstar": 0.00068975329,
        "meta_mean_motion_dot": 1.34e-05,
        "meta_mean_motion_ddot": 0,
        "tle_line1": "1 31000U 99025BCS 25345.06193462  .00001340  00000+0  68975-3 0  9994",
        "tle_line2": "2 31000  97.5668  13.9766 0165489  71.1240 318.2820 14.09635849699330"
      },
      "geometry": {
        "type": "Point",
        "coordinates": [
          -161.2519949355534,
          23.52231234741622
        ]
      }
    },
    {
      "type": "Feature",
      "properties": {
        "norad_id": 31001,
        "name": "FENGYUN 1C DEB",
        "group": "fengyun-1c-debris",
        "lat": -69.13323275172317,
        "lon": -114.94491010711401,
        "alt_km": 831.4089664899075,
        "timestamp": "2025-12-12T18:57:44.409609+00:00",
        "meta_object_name": "FENGYUN 1C DEB",
        "meta_object_id": "1999-025BCT",
        "meta_epoch": "2025-12-12T02:39:27.878112",
        "meta_mean_motion": 14.42858877,
        "meta_eccentricity": 0.01468358,
        "meta_inclination": 99.2719,
        "meta_ra_of_asc_node": 218.9415,
        "meta_arg_of_pericenter": 154.3626,
        "meta_mean_anomaly": 206.4937,
        "meta_ephemeris_type": 0,
        "meta_classification_type": "U",
        "meta_norad_cat_id": 31001,
        "meta_element_set_no": 999,
        "meta_rev_at_epoch": 98197,
        "meta_bstar": 0.00062559391,
        "meta_mean_motion_dot": 2.323e-05,
        "meta_mean_motion_ddot": 0,
        "tle_line1": "1 31001U 99025BCT 25346.11073933  .00002323  00000+0  62559-3 0  9996",
        "tle_line2": "2 31001  99.2719 218.9415 0146835 154.3626 206.4937 14.42858877981977"
      },
      "geometry": {
        "type": "Point",
        "coordinates": [
          -114.94491010711401,
          -69.13323275172317
        ]
      }
    },
    {
      "type": "Feature",
      "properties": {
        "norad_id": 31002,
        "name": "FENGYUN 1C DEB",
        "group": "fengyun-1c-debris",
        "lat": -36.92319260857615,
        "lon": 5.498970262831028,
        "alt_km": 837.3446208104178,
        "timestamp": "2025-12-12T18:57:44.409620+00:00",
        "meta_object_name": "FENGYUN 1C DEB",
        "meta_object_id": "1999-025BCU",
        "meta_epoch": "2025-12-12T07:12:38.124000",
        "meta_mean_motion": 13.99202693,
        "meta_eccentricity": 0.0099,
        "meta_inclination": 98.8861,
        "meta_ra_of_asc_node": 358.2726,
        "meta_arg_of_pericenter": 348.84,
        "meta_mean_anomaly": 29.1773,
        "meta_ephemeris_type": 0,
        "meta_classification_type": "U",
        "meta_norad_cat_id": 31002,
        "meta_element_set_no": 999,
        "meta_rev_at_epoch": 95599,
        "meta_bstar": 0.00041040224,
        "meta_mean_motion_dot": 5.78e-06,
        "meta_mean_motion_ddot": 0,
        "tle_line1": "1 31002U 99025BCU 25346.30044125  .00000578  00000+0  41040-3 0  9991",
        "tle_line2": "2 31002  98.8861 358.2726 0099000 348.8400  29.1773 13.99202693955996"
      },
      "geometry": {
        "type": "Point",
        "coordinates": [
          5.498970262831028,
          -36.92319260857615
        ]
      }
    },
    {
      "type": "Feature",
      "properties": {
        "norad_id": 31003,
        "name": "FENGYUN 1C DEB",
        "group": "fengyun-1c-debris",
        "lat": -36.265902953085806,
        "lon": 70.14083393844743,
        "alt_km": 825.4940062537426,
        "timestamp": "2025-12-12T18:57:44.409630+00:00",
        "meta_object_name": "FENGYUN 1C DEB",
        "meta_object_id": "1999-025BCV",
        "meta_epoch": "2025-12-12T03:57:56.469888",
        "meta_mean_motion": 14.24690255,
        "meta_eccentricity": 0.00416518,
        "meta_inclination": 98.8428,
        "meta_ra_of_asc_node": 62.9537,
        "meta_arg_of_pericenter": 215.9859,
        "meta_mean_anomaly": 143.8513,
        "meta_ephemeris_type": 0,
        "meta_classification_type": "U",
        "meta_norad_cat_id": 31003,
        "meta_element_set_no": 999,
        "meta_rev_at_epoch": 96501,
        "meta_bstar": 0.0021922587,
        "meta_mean_motion_dot": 5.104e-05,
        "meta_mean_motion_ddot": 0,
        "tle_line1": "1 31003U 99025BCV 25346.16523692  .00005104  00000+0  21923-2 0  9994",
        "tle_line2": "2 31003  98.8428  62.9537 0041651 215.9859 143.8513 14.24690255965010"
      },
      "geometry": {
        "type": "Point",
        "coordinates": [
          70.14083393844743,
          -36.265902953085806
        ]
      }
    }
  ]
}